{
  "type": "FeatureCollection",
  "features": [
    {
      "type": "Feature",
      "properties": {
        "norad_id": 38250,
        "name": "BEIDOU-2 M3 (C11)",
        "group": "beidou",
        "lat": -18.068308227337464,
        "lon": 144.00144082383378,
        "alt_km": 21509.194950452904,
        "timestamp": "2025-12-09T09:46:47.910338+00:00",
        "meta_object_name": "BEIDOU-2 M3 (C11)",
        "meta_object_id": "2012-018A",
        "meta_epoch": "2025-12-09T02:31:53.120352",
        "meta_mean_motion": 1.86229518,
        "meta_eccentricity": 0.0024485,
        "meta_inclination": 55.923,
        "meta_ra_of_asc_node": 311.2799,
        "meta_arg_of_pericenter": 273.6556,
        "meta_mean_anomaly": 86.0527,
        "meta_ephemeris_type": 0,
        "meta_classification_type": "U",
        "meta_norad_cat_id": 38250,
        "meta_element_set_no": 999,
        "meta_rev_at_epoch": 9240,
        "meta_bstar": 0,
        "meta_mean_motion_dot": -7.5e-07,
        "meta_mean_motion_ddot": 0,
        "tle_line1": "1 38250U 12018A   25343.10547593 -.00000075  00000+0  00000+0 0  9992",
        "tle_line2": "2 38250  55.9230 311.2799 0024485 273.6556  86.0527  1.86229518 92408"
      },
      "geometry": {
        "type": "Point",
        "coordinates": [
          144.00144082383378,
          -18.068308227337464
        ]
      }
    },
    {
      "type": "Feature",
      "properties": {
        "norad_id": 38251,
        "name": "BEIDOU-2 M4 (C12)",
        "group": "beidou",
        "lat": -50.00311119437179,
        "lon": -175.4948888030343,
        "alt_km": 21495.491824875495,
        "timestamp": "2025-12-09T09:46:47.910364+00:00",
        "meta_object_name": "BEIDOU-2 M4 (C12)",
        "meta_object_id": "2012-018B",
        "meta_epoch": "2025-12-09T00:54:01.935360",
        "meta_mean_motion": 1.86229265,
        "meta_eccentricity": 0.0015661,
        "meta_inclination": 55.8248,
        "meta_ra_of_asc_node": 310.5114,
        "meta_arg_of_pericenter": 276.7071,
        "meta_mean_anomaly": 83.1029,
        "meta_ephemeris_type": 0,
        "meta_classification_type": "U",
        "meta_norad_cat_id": 38251,
        "meta_element_set_no": 999,
        "meta_rev_at_epoch": 9240,
        "meta_bstar": 0,
        "meta_mean_motion_dot": -7.4e-07,
        "meta_mean_motion_ddot": 0,
        "tle_line1": "1 38251U 12018B   25343.03752240 -.00000074  00000+0  00000+0 0  9991",
        "tle_line2": "2 38251  55.8248 310.5114 0015661 276.7071  83.1029  1.86229265 92406"
      },
      "geometry": {
        "type": "Point",
        "coordinates": [
          -175.4948888030343,
          -50.00311119437179
        ]
      }
    },
    {
      "type": "Feature",
      "properties": {
        "norad_id": 38775,
        "name": "BEIDOU-2 M6 (C14)",
        "group": "beidou",
        "lat": 55.55940577383966,
        "lon": 144.88473125275718,
        "alt_km": 21525.146181107542,
        "timestamp": "2025-12-09T09:46:47.910379+00:00",
        "meta_object_name": "BEIDOU-2 M6 (C14)",
        "meta_object_id": "2012-050B",
        "meta_epoch": "2025-12-08T05:04:33.479040",
        "meta_mean_motion": 1.86230723,
        "meta_eccentricity": 0.00110356,
        "meta_inclination": 56.3747,
        "meta_ra_of_asc_node": 69.2178,
        "meta_arg_of_pericenter": 345.3738,
        "meta_mean_anomaly": 14.6151,
        "meta_ephemeris_type": 0,
        "meta_classification_type": "U",
        "meta_norad_cat_id": 38775,
        "meta_element_set_no": 999,
        "meta_rev_at_epoch": 8975,
        "meta_bstar": 0,
        "meta_mean_motion_dot": -4.4e-07,
        "meta_mean_motion_ddot": 0,
        "tle_line1": "1 38775U 12050B   25342.21149860 -.00000044  00000+0  00000+0 0  9992",
        "tle_line2": "2 38775  56.3747  69.2178 0011035 345.3738  14.6151  1.86230723 89759"
      },
      "geometry": {
        "type": "Point",
        "coordinates": [
          144.88473125275718,
          55.55940577383966
        ]
      }
    },
    {
      "type": "Feature",
      "properties": {
        "norad_id": 38953,
        "name": "BEIDOU-2 G6 (C02)",
        "group": "beidou",
        "lat": -3.181468375211972,
        "lon": -51.00608881555271,
        "alt_km": 35769.34491897684,
        "timestamp": "2025-12-09T09:46:47.910392+00:00",
        "meta_object_name": "BEIDOU-2 G6 (C02)",
        "meta_object_id": "2012-059A",
        "meta_epoch": "2025-12-08T20:51:04.199040",
        "meta_mean_motion": 1.00269836,
        "meta_eccentricity": 0.00074931,
        "meta_inclination": 3.9388,
        "meta_ra_of_asc_node": 75.5346,
        "meta_arg_of_pericenter": 289.1403,
        "meta_mean_anomaly": 109.993,
        "meta_ephemeris_type": 0,
        "meta_classification_type": "U",
        "meta_norad_cat_id": 38953,
        "meta_element_set_no": 999,
        "meta_rev_at_epoch": 4800,
        "meta_bstar": 0,
        "meta_mean_motion_dot": -1.74e-06,
        "meta_mean_motion_ddot": 0,
        "tle_line1": "1 38953U 12059A   25342.86879860 -.00000174  00000+0  00000+0 0  9994",
        "tle_line2": "2 38953   3.9388  75.5346 0007493 289.1403 109.9930  1.00269836 48009"
      },
      "geometry": {
        "type": "Point",
        "coordinates": [
          -51.00608881555271,
          -3.181468375211972
        ]
      }
    },
    {
      "type": "Feature",
      "properties": {
        "norad_id": 40549,
        "name": "BEIDOU-3S IGSO-1S (C31)",
        "group": "beidou",
        "lat": 15.934725718942289,
        "lon": -48.2116424234486,
        "alt_km": 35932.25058436248,
        "timestamp": "2025-12-09T09:46:47.910404+00:00",
        "meta_object_name": "BEIDOU-3S IGSO-1S (C31)",
        "meta_object_id": "2015-019A",
        "meta_epoch": "2025-12-07T20:38:38.671584",
        "meta_mean_motion": 1.00293516,
        "meta_eccentricity": 0.00368211,
        "meta_inclination": 49.562,
        "meta_ra_of_asc_node": 297.7693,
        "meta_arg_of_pericenter": 193.8977,
        "meta_mean_anomaly": 348.5751,
        "meta_ephemeris_type": 0,
        "meta_classification_type": "U",
        "meta_norad_cat_id": 40549,
        "meta_element_set_no": 999,
        "meta_rev_at_epoch": 3915,
        "meta_bstar": 0,
        "meta_mean_motion_dot": -1.86e-06,
        "meta_mean_motion_ddot": 0,
        "tle_line1": "1 40549U 15019A   25341.86016981 -.00000186  00000+0  00000+0 0  9996",
        "tle_line2": "2 40549  49.5620 297.7693 0036821 193.8977 348.5751  1.00293516 39155"
      },
      "geometry": {
        "type": "Point",
        "coordinates": [
          -48.2116424234486,
          15.934725718942289
        ]
      }
    },
    {
      "type": "Feature",
      "properties": {
        "norad_id": 40748,
        "name": "BEIDOU-3S M2S (C58)",
        "group": "beidou",
        "lat": 50.188906697840274,
        "lon": 71.55103697948854,
        "alt_km": 21554.13223811805,
        "timestamp": "2025-12-09T09:46:47.910417+00:00",
        "meta_object_name": "BEIDOU-3S M2S (C58)",
        "meta_object_id": "2015-037A",
        "meta_epoch": "2025-12-08T16:56:06.142560",
        "meta_mean_motion": 1.86229071,
        "meta_eccentricity": 0.00122828,
        "meta_inclination": 55.0424,
        "meta_ra_of_asc_node": 308.6021,
        "meta_arg_of_pericenter": 268.3899,
        "meta_mean_anomaly": 91.4573,
        "meta_ephemeris_type": 0,
        "meta_classification_type": "U",
        "meta_norad_cat_id": 40748,
        "meta_element_set_no": 999,
        "meta_rev_at_epoch": 7057,
        "meta_bstar": 0,
        "meta_mean_motion_dot": -7.3e-07,
        "meta_mean_motion_ddot": 0,
        "tle_line1": "1 40748U 15037A   25342.70562665 -.00000073  00000+0  00000+0 0  9991",
        "tle_line2": "2 40748  55.0424 308.6021 0012282 268.3899  91.4573  1.86229071 70579"
      },
      "geometry": {
        "type": "Point",
        "coordinates": [
          71.55103697948854,
          50.188906697840274
        ]
      }
    },
    {
      "type": "Feature",
      "properties": {
        "norad_id": 40749,
        "name": "BEIDOU-3S M1S (C57)",
        "group": "beidou",
        "lat": -34.76400638770309,
        "lon": -80.48279128921735,
        "alt_km": 21522.880909765205,
        "timestamp": "2025-12-09T09:46:47.910429+00:00",
        "meta_object_name": "BEIDOU-3S M1S (C57)",
        "meta_object_id": "2015-037B",
        "meta_epoch": "2025-12-08T09:35:11.371488",
        "meta_mean_motion": 1.86253811,
        "meta_eccentricity": 0.00035729,
        "meta_inclination": 55.0394,
        "meta_ra_of_asc_node": 308.6023,
        "meta_arg_of_pericenter": 359.9118,
        "meta_mean_anomaly": 0.0754,
        "meta_ephemeris_type": 0,
        "meta_classification_type": "U",
        "meta_norad_cat_id": 40749,
        "meta_element_set_no": 999,
        "meta_rev_at_epoch": 7057,
        "meta_bstar": 0,
        "meta_mean_motion_dot": -7.3e-07,
        "meta_mean_motion_ddot": 0,
        "tle_line1": "1 40749U 15037B   25342.39943717 -.00000073  00000+0  00000+0 0  9998",
        "tle_line2": "2 40749  55.0394 308.6023 0003572 359.9118   0.0754  1.86253811 70577"
      },
      "geometry": {
        "type": "Point",
        "coordinates": [
          -80.48279128921735,
          -34.76400638770309
        ]
      }
    }
  ]
}